OPTICUBE 04             
1 41851U 16067D   25049.45319716  .00006340  00000+0  43734-3 0  9991
2 41851  98.0895 231.6305 0016419 312.1392  47.8437 15.06083595452266
AEROCUBE 8D             
1 41852U 16067E   25049.47412492  .00013976  00000+0  75387-3 0  9991
2 41852  98.1131 239.5615 0004568   4.6897 355.4375 15.14885056452593
AEROCUBE 8C             
1 41853U 16067F   25049.48734031  .00013077  00000+0  70448-3 0  9994
2 41853  98.0961 237.5845 0006013 288.6271  71.4306 15.14942003452588
PROMETHEUS 2-1          
1 41854U 16067G   25049.48779925  .00041019  00000+0  11643-2 0  9994
2 41854  98.0911 250.7850 0008464 289.4334  70.5993 15.36060870453285
PROMETHEUS 2-3          
1 41855U 16067H   25049.82050817  .00044622  00000+0  12676-2 0  9995
2 41855  98.0853 250.4054 0007336 298.6445  61.4058 15.36023907453333
CORVUS BC2              
1 42846U 17042X   25049.94641014  .00006818  00000+0  53021-3 0  9993
2 42846  97.3702 227.9839 0012176 318.3741  41.6556 15.01525404414427
CORVUS BC1              
1 42847U 17042Y   25049.94840359  .00007411  00000+0  57290-3 0  9999
2 42847  97.3728 228.4328 0010859 294.2924  65.7167 15.01736178414445
MIRATA                  
1 43015U 17073C   25049.95776724  .00057121  00000+0  15014-2 0  9996
2 43015  97.5586 301.1765 0115484 122.6881 238.5561 15.31795761393773
MAKERSAT 0              
1 43016U 17073D   25049.59389225  .00020406  00000+0  91072-3 0  9998
2 43016  97.5382 289.1048 0160579 162.8331 197.8421 15.10492099392954
SIRION PATHFINDER-2     
1 43759U 18099B   25049.64895696  .00008548  00000+0  55929-3 0  9995
2 43759  97.4939 105.2769 0010541 160.2182 199.9457 15.07959553339583
CORVUS BC4              
1 43767U 18099K   25049.64255296  .00007298  00000+0  49536-3 0  9998
2 43767  97.4759 101.5861 0008590 217.0701 142.9934 15.06663585339442
MOVE-II                 
1 43780U 18099Y   25049.74461005  .00074386  00000+0  16997-2 0  9997
2 43780  97.4820 120.0669 0004298 191.2508 168.8644 15.42570720340554
SPACEBEE-7              
1 43816U 18099BL  25049.70488150  .00032947  00000+0  12311-2 0  9996
2 43816  97.5112 118.4853 0007798 146.8931 213.2797 15.27262336339825
SHIELDS 1               
1 43850U 18104B   25049.62796868  .00032246  00000+0  52788-3 0  9995
2 43850  85.0167 114.1842 0007823 198.5682 161.5292 15.52309857344191
SONATE                  
1 44400U 19038Q   25049.82618195  .00075976  00000+0  95275-3 0  9997
2 44400  97.7104  65.0282 0006666 304.1145  55.9478 15.59473086312155
DUCHIFAT-3              
1 44854U 19089C   25049.88502061  .00046460  00000+0  13528-2 0  9992
2 44854  36.9497 332.9669 0008931 332.8879  27.1407 15.34404139285936
M2 PATHFINDER           
1 45727U 20037E   25049.92364689  .00006813  00000+0  54085-3 0  9996
2 45727  97.7964 231.8960 0012501 358.9569   1.1626 15.00760667252904
NETSAT-4                
1 46504U 20068U   25049.89027981  .00021792  00000+0  86163-3 0  9996
2 46504  97.8361  21.9179 0006454 211.5798 148.5053 15.25483843241642
NETSAT-3                
1 46505U 20068V   25049.85520518  .00020213  00000+0  82417-3 0  9992
2 46505  97.8351  21.0567 0005685 225.8000 134.2769 15.24472002241610
NETSAT-1                
1 46506U 20068W   25049.85972318  .00016549  00000+0  75311-3 0  9994
2 46506  97.8374  19.6092 0004850 244.8667 115.2064 15.20783368241517
NETSAT-2                
1 46507U 20068X   25049.85699731  .00022087  00000+0  87968-3 0  9995
2 46507  97.8356  21.4326 0003716 244.6896 115.3956 15.25248951241588
WILDTRACKCUBE-SIMBA     
1 47941U 21022K   25049.95428795  .00036987  00000+0  10289-2 0  9995
2 47941  97.4347 312.5989 0011571   4.3475 355.7867 15.36678833216152
GRBALPHA                
1 47959U 21022AD  25049.89823151  .00098403  00000+0  15317-2 0  9990
2 47959  97.4312 317.6721 0007271   2.9476 357.1818 15.53529942215303
LEDSAT                  
1 49069U 21073D   25049.72555422  .00047987  00000+0  10169-2 0  9996
2 49069  97.4025 127.9113 0012928 124.0415 236.2063 15.44852952194236
ROBUSTA-1F (MTCUBE 2)   
1 53109U 22080E   25049.15531807 -.00000003  00000+0  00000+0 0  9992
2 53109  70.1223 106.5907 0008360  33.5335 326.5852  6.42584189 60961
SITRO-AIS 5 (KATYS)     
1 57176U 23091L   25049.90180888  .00016149  00000+0  83053-3 0  9995
2 57176  97.5759 106.8234 0014898 358.8364   1.2831 15.16435543 90787
SITRO-AIS 6 (CHIRKIN)   
1 57192U 23091AC  25049.94969758  .00015197  00000+0  78312-3 0  9992
2 57192  97.5760 106.8970 0014791 358.9496   1.1703 15.16381824 90793
SITRO-AIS 8 (ANOKHIN)   
1 57193U 23091AD  25049.94761449  .00017193  00000+0  85951-3 0  9995
2 57193  97.5757 107.1930 0014312 359.1085   1.0120 15.17424302 90811
SITRO-AIS 7 (FARTUSHNIY)
1 57194U 23091AE  25049.89944461  .00016135  00000+0  83252-3 0  9994
2 57194  97.5757 106.8004 0014688 359.3885   0.7327 15.16324314 90788
SITRO-AIS 10 (BURDAEV)  
1 57199U 23091AK  25049.95466299  .00019556  00000+0  90392-3 0  9997
2 57199  97.5767 108.9841 0009666 345.8587  14.2375 15.20172567 90920
SITRO-AIS 9 (SHCHUKIN)  
1 57201U 23091AM  25049.89560659  .00019840  00000+0  92007-3 0  9990
2 57201  97.5763 108.8704 0009684 346.0483  14.0482 15.20055900 90912
SITRO-AIS 12 (SMIRENNIY)
1 57204U 23091AQ  25049.89229860  .00019566  00000+0  90238-3 0  9998
2 57204  97.5772 109.1010 0009516 339.6194  20.4659 15.20250660 90928
SITRO-AIS 11 (SHEFFER)  
1 57208U 23091AU  25049.92376274  .00018916  00000+0  86861-3 0  9993
2 57208  97.5767 109.1950 0009376 339.6091  20.4768 15.20408251 90932
VERONIKA                
1 58261U 23174F   25049.90493360  .00071291  00000+0  14952-2 0  9995
2 58261  97.4269 131.6772 0006926  88.1581 272.0461 15.45116859 71467
ROBUSTA-1E (ENSO)       
1 58470U 23185J   25049.92590630  .00050186  00000+0  11661-2 0  9993
2 58470  97.3890 122.5494 0009125 121.0170 239.1975 15.42144888 67901
SITRO-AIS 29            
1 59052U 24039B   25049.89275948  .00120733  00000+0  14918-2 0  9991
2 59052  97.4140  20.8852 0013177  65.2584 295.0042 15.59629599 54575
SITRO-AIS 30            
1 59053U 24039C   25049.88909468  .00115625  00000+0  14920-2 0  9999
2 59053  97.4133  20.7263 0013397  64.9963 295.2683 15.58493053 54558
SITRO-AIS 31            
1 59054U 24039D   25049.89287104  .00114978  00000+0  14403-2 0  9993
2 59054  97.4150  20.8837 0013228  67.1476 293.1175 15.59285616 54584
SITRO-AIS 33            
1 59055U 24039E   25049.86450828  .00120167  00000+0  14947-2 0  9996
2 59055  97.4135  20.9286 0012900  66.5825 293.6786 15.59460227 54579
SITRO-AIS 35            
1 59056U 24039F   25049.91742845  .00121648  00000+0  15006-2 0  9998
2 59056  97.4147  21.0111 0013056  68.8057 291.4593 15.59672451 54584
SITRO-AIS 32            
1 59057U 24039G   25049.90784563  .00112743  00000+0  14379-2 0  9999
2 59057  97.4149  20.8797 0013158  67.0323 293.2320 15.58817813 54573
SITRO-AIS 34            
1 59058U 24039H   25049.92928261  .00120158  00000+0  14957-2 0  9998
2 59058  97.4139  20.9984 0012842  66.8635 293.3973 15.59441465 54587
SITRO-AIS 36            
1 59059U 24039J   25049.90710970  .00116143  00000+0  14537-2 0  9996
2 59059  97.4129  21.0150 0012651  67.5698 292.6896 15.59312585 54585
SITRO-AIS 49            
1 59060U 24039K   25049.94406855  .00111809  00000+0  14247-2 0  9998
2 59060  97.4135  20.9748 0012940  66.9470 293.3149 15.58848463 54584
SITRO-AIS 50            
1 59061U 24039L   25049.91504643  .00122398  00000+0  14751-2 0  9995
2 59061  97.4123  21.1539 0012405  66.9698 293.2866 15.60293274 54594
SITRO-AIS 51            
1 59062U 24039M   25049.90326547  .00122918  00000+0  14632-2 0  9996
2 59062  97.4129  21.1685 0012356  67.3470 292.9092 15.60616172 54594
SITRO-AIS 52            
1 59063U 24039N   25049.94527592  .00126227  00000+0  14937-2 0  9999
2 59063  97.4137  21.2781 0012580  69.2045 291.0558 15.60757099 54603
SITRO-AIS 25            
1 59066U 24039R   25049.93864237  .00009293  00000+0  81348-3 0  9995
2 59066  95.3815 264.7839 0158479 210.5971 148.5937 14.87578280 52731
SITRO-AIS 26            
1 59067U 24039S   25049.81916110  .00008774  00000+0  77082-3 0  9994
2 59067  95.3818 264.6784 0158656 211.1584 148.0159 14.87434026 52715
SITRO-AIS 27            
1 59068U 24039T   25049.90495532  .00007916  00000+0  69139-3 0  9996
2 59068  95.3817 264.8224 0158035 210.4135 148.7850 14.87740307 52730
SITRO-AIS 28            
1 59071U 24039U   25049.89505165  .00008779  00000+0  76587-3 0  9995
2 59071  95.3820 264.8354 0157844 210.3677 148.8332 14.87782365 52735
GRBBETA                 
1 60237U 24128C   25049.88492220  .00007048  00000+0  55643-3 0  9994
2 60237  61.9920 105.0772 0041091  31.7316 328.6238 15.00909459 33577
OOV-CUBE (TUBSAT-30)    
1 60240U 24128F   25049.52134755  .00004195  00000+0  35442-3 0  9990
2 60240  61.9961 107.8169 0039539  27.9435 332.3765 14.99119723 33503
ROBUSTA-3A (MEDITERRAN*)
1 60243U 24128J   25049.57399995  .00010599  00000+0  80883-3 0  9991
2 60243  61.9889 106.2620 0039597  24.1774 336.1163 15.01849473 33532
LASARSAT                
1 62391U 24247Q   25048.26130859  .00027308  00000+0  12345-2 0  9999
2 62391  44.9927  49.4658 0003513  76.6913 283.4359 15.20520852  8932
CROCUBE                 
1 62394U 24247T   25049.05154626  .00028068  00000+0  12668-2 0  9990
2 62394  44.9930  45.2179 0004043  86.4986 273.6357 15.20561648  9050
